NORAD_CAT_ID,OBJECT_NAME,OBJECT_TYPE,EPOCH,MEAN_MOTION,ECCENTRICITY,INCLINATION,RA_OF_ASC_NODE,ARG_OF_PERICENTER,MEAN_ANOMALY,BSTAR,MEAN_MOTION_DOT,MEAN_MOTION_DDOT,TLE_LINE0,TLE_LINE1,TLE_LINE2,SEMIMAJOR_AXIS,PERIOD,APOGEE,PERIGEE,DECAYED
53568.0,STARLINK-4583,PAYLOAD,2023-08-05 15:11:28,15.08860175,8.55e-05,53.218,345.4913,91.4021,268.7069,0.00020711,3.012e-05,0.0,0 STARLINK-4583,1 53568U 22101AT  23217.63296749  .00003012  00000-0  20711-3 0  9994,2 53568  53.2180 345.4913 0000855  91.4021 268.7069 15.08860175 53470,6917.819,95.436,540.275,539.092,0.0
53568.0,STARLINK-4583,PAYLOAD,2023-08-06 03:54:35,15.08833884,6.95e-05,53.2183,343.1137,91.8898,268.2174,8.0983e-05,1.001e-05,0.0,0 STARLINK-4583,1 53568U 22101AT  23218.16290764  .00001001  00000-0  80983-4 0  9998,2 53568  53.2183 343.1137 0000695  91.8898 268.2174 15.08833884 53552,6917.899,95.438,540.245,539.283,0.0
53568.0,STARLINK-4583,PAYLOAD,2023-08-06 08:40:46,15.08810231,5.02e-05,53.2184,342.2207,51.067,309.0366,-0.00014937,-2.662e-05,0.0,0 STARLINK-4583,1 53568U 22101AT  23218.36165057 -.00002662  00000-0 -14937-3 0  9997,2 53568  53.2184 342.2207 0000502  51.0670 309.0366 15.08810231 53585,6917.971,95.439,540.184,539.489,0.0
53568.0,STARLINK-4583,PAYLOAD,2023-08-06 15:02:18,15.08818595,8.93e-05,53.2173,341.0325,84.1759,275.9335,-0.00019187,-3.338e-05,0.0,0 STARLINK-4583,1 53568U 22101AT  23218.62660087 -.00003338  00000-0 -19187-3 0  9992,2 53568  53.2173 341.0325 0000893  84.1759 275.9335 15.08818595 53622,6917.946,95.439,540.429,539.193,0.0
53568.0,STARLINK-4583,PAYLOAD,2023-08-07 08:31:32,15.08827965,8.83e-05,53.2173,337.7611,107.1661,252.9428,2.1821e-05,6e-07,0.0,0 STARLINK-4583,1 53568U 22101AT  23219.35524168  .00000060  00000-0  21821-4 0  9998,2 53568  53.2173 337.7611 0000883 107.1661 252.9428 15.08827965 53730,6917.917,95.438,540.393,539.171,0.0
53568.0,STARLINK-4583,PAYLOAD,2023-08-07 14:53:05,15.08840736,7.97e-05,53.2174,336.5721,100.4916,259.6166,0.00055334,8.53e-05,0.0,0 STARLINK-4583,1 53568U 22101AT  23219.62020159  .00008530  00000-0  55334-3 0  9994,2 53568  53.2174 336.5721 0000797 100.4916 259.6166 15.08840736 53771,6917.878,95.438,540.294,539.192,0.0
53568.0,STARLINK-4583,PAYLOAD,2023-08-08 14:43:51,15.08873451,7.99e-05,53.217,332.1116,96.7145,263.3938,0.0010193,0.00015986,0.0,0 STARLINK-4583,1 53568U 22101AT  23220.61379288  .00015986  00000-0  10193-2 0  9991,2 53568  53.2170 332.1116 0000799  96.7145 263.3938 15.08873451 53926,6917.778,95.435,540.196,539.09,0.0
53568.0,STARLINK-4583,PAYLOAD,2023-08-09 14:34:38,15.08847727,7.3e-05,53.2167,327.6514,93.0804,267.0272,0.00030639,4.593e-05,0.0,0 STARLINK-4583,1 53568U 22101AT  23221.60739198  .00004593  00000-0  30639-3 0  9991,2 53568  53.2167 327.6514 0000730  93.0804 267.0272 15.08847727 54076,6917.857,95.437,540.227,539.217,0.0
53568.0,STARLINK-4583,PAYLOAD,2023-08-10 09:39:16,15.08848554,7.52e-05,53.2164,324.0831,78.7273,281.3804,0.00058587,9.051e-05,0.0,0 STARLINK-4583,1 53568U 22101AT  23222.40227327  .00009051  00000-0  58587-3 0  9992,2 53568  53.2164 324.0831 0000752  78.7273 281.3804 15.08848554 54192,6917.854,95.437,540.239,539.199,0.0
53568.0,STARLINK-4583,PAYLOAD,2023-08-10 23:57:44,15.08843264,7.35e-05,53.2165,321.4043,102.8536,257.2538,0.00026351,3.909e-05,0.0,0 STARLINK-4583,1 53568U 22101AT  23222.99843193  .00003909  00000-0  26351-3 0  9991,2 53568  53.2165 321.4043 0000735 102.8536 257.2538 15.08843264 54280,6917.87,95.437,540.244,539.227,0.0
53568.0,STARLINK-4583,PAYLOAD,2023-08-11 12:40:49,15.08838951,7.9e-05,53.2157,319.0281,71.2825,288.8253,0.00016198,2.291e-05,0.0,0 STARLINK-4583,1 53568U 22101AT  23223.52835426  .00002291  00000-0  16198-3 0  9992,2 53568  53.2157 319.0281 0000790  71.2825 288.8253 15.08838951 54369,6917.884,95.438,540.295,539.202,0.0
53568.0,STARLINK-4583,PAYLOAD,2023-08-12 15:42:22,15.08854125,8.52e-05,53.2162,313.9718,77.6094,282.4994,0.00045234,6.921e-05,0.0,0 STARLINK-4583,1 53568U 22101AT  23224.65443061  .00006921  00000-0  45234-3 0  9994,2 53568  53.2162 313.9718 0000852  77.6094 282.4994 15.08854125 54532,6917.837,95.437,540.292,539.113,0.0
53568.0,STARLINK-4583,PAYLOAD,2023-08-12 23:39:18,15.08846924,9.52e-05,53.2158,312.487,56.2755,303.8327,0.00031434,4.719e-05,0.0,0 STARLINK-4583,1 53568U 22101AT  23224.98563341  .00004719  00000-0  31434-3 0  9994,2 53568  53.2158 312.4870 0000952  56.2755 303.8327 15.08846924 54589,6917.859,95.437,540.383,539.066,0.0
53568.0,STARLINK-4583,PAYLOAD,2023-08-13 09:11:37,15.08837366,0.0001153,53.2159,310.7005,90.239,269.8735,5.17e-05,5.35e-06,0.0,0 STARLINK-4583,1 53568U 22101AT  23225.38307683  .00000535  00000-0  51700-4 0  9995,2 53568  53.2159 310.7005 0001153  90.2390 269.8735 15.08837366 54649,6917.888,95.438,540.551,538.956,0.0
53568.0,STARLINK-4583,PAYLOAD,2023-08-14 10:37:48,15.08841549,9.22e-05,53.2164,305.9433,89.3897,270.7201,0.00013858,1.919e-05,0.0,0 STARLINK-4583,1 53568U 22101AT  23226.44291707  .00001919  00000-0  13858-3 0  9990,2 53568  53.2164 305.9433 0000922  89.3897 270.7201 15.08841549 54805,6917.876,95.437,540.378,539.103,0.0
53568.0,STARLINK-4583,PAYLOAD,2023-08-16 10:19:22,15.08838301,0.000102,53.2162,297.0234,83.3274,276.7834,5.9525e-05,6.6e-06,0.0,0 STARLINK-4583,1 53568U 22101AT  23228.43011987  .00000660  00000-0  59525-4 0  9995,2 53568  53.2162 297.0234 0001020  83.3274 276.7834 15.08838301 55100,6917.886,95.438,540.456,539.045,0.0
53568.0,STARLINK-4583,PAYLOAD,2023-08-17 13:20:55,15.08846595,0.0001109,53.2157,291.9678,80.5153,279.5964,0.00018398,2.642e-05,0.0,0 STARLINK-4583,1 53568U 22101AT  23229.55619585  .00002642  00000-0  18398-3 0  9991,2 53568  53.2157 291.9678 0001109  80.5153 279.5964 15.08846595 55279,6917.86,95.437,540.492,538.958,0.0
53568.0,STARLINK-4583,PAYLOAD,2023-08-17 22:53:14,15.0883914,0.0001101,53.2161,290.1842,87.2668,272.845,7.9217e-05,9.73e-06,0.0,0 STARLINK-4583,1 53568U 22101AT  23229.95363935  .00000973  00000-0  79217-4 0  9993,2 53568  53.2161 290.1842 0001101  87.2668 272.8450 15.08839140 55336,6917.883,95.438,540.51,538.986,0.0
53568.0,STARLINK-4583,PAYLOAD,2023-08-19 09:51:43,15.08845352,0.0001157,53.2162,283.6406,93.8517,266.2608,8.9134e-05,1.131e-05,0.0,0 STARLINK-4583,1 53568U 22101AT  23231.41091762  .00001131  00000-0  89134-4 0  9999,2 53568  53.2162 283.6406 0001157  93.8517 266.2608 15.08845352 55555,6917.864,95.437,540.529,538.929,0.0
53568.0,STARLINK-4583,PAYLOAD,2023-08-20 09:42:30,15.08836048,0.0001204,53.2159,279.1787,102.2782,257.8345,7.8013e-05,9.54e-06,0.0,0 STARLINK-4583,1 53568U 22101AT  23232.40452361  .00000954  00000-0  78013-4 0  9991,2 53568  53.2159 279.1787 0001204 102.2782 257.8345 15.08836048 55708,6917.892,95.438,540.59,538.925,0.0
53568.0,STARLINK-4583,PAYLOAD,2023-08-22 03:02:32,15.08833495,0.0001205,53.2159,271.4492,86.7117,273.4013,5.8481e-05,6.43e-06,0.0,0 STARLINK-4583,1 53568U 22101AT  23234.12676675  .00000643  00000-0  58481-4 0  9990,2 53568  53.2159 271.4492 0001205  86.7117 273.4013 15.08833495 55962,6917.9,95.438,540.599,538.932,0.0
53568.0,STARLINK-4583,PAYLOAD,2023-08-24 07:30:16,15.08834586,0.0001215,53.2158,261.6358,84.6705,275.4425,6.1215e-05,6.86e-06,0.0,0 STARLINK-4583,1 53568U 22101AT  23236.31269061  .00000686  00000-0  61215-4 0  9996,2 53568  53.2158 261.6358 0001215  84.6705 275.4425 15.08834586 56988,6917.897,95.438,540.602,538.921,0.0
53568.0,STARLINK-4583,PAYLOAD,2023-08-25 08:56:26,15.08840345,0.0001289,53.2158,256.8773,81.7817,278.3321,8.0963e-05,1.001e-05,0.0,0 STARLINK-4583,1 53568U 22101AT  23237.37252882  .00001001  00000-0  80963-4 0  9999,2 53568  53.2158 256.8773 0001289  81.7817 278.3321 15.08840345 56457,6917.879,95.438,540.636,538.853,0.0
53568.0,STARLINK-4583,PAYLOAD,2023-08-26 10:22:36,15.08843774,0.000128,53.2158,252.1189,88.3772,271.7367,0.0001222,1.658e-05,0.0,0 STARLINK-4583,1 53568U 22101AT  23238.43236582  .00001658  00000-0  12220-3 0  9994,2 53568  53.2158 252.1189 0001280  88.3772 271.7367 15.08843774 56615,6917.869,95.437,540.619,538.848,0.0
53568.0,STARLINK-4583,PAYLOAD,2023-08-27 00:41:05,15.08838806,0.0001294,53.2158,249.4423,91.6993,268.4147,3.5894e-05,2.83e-06,0.0,0 STARLINK-4583,1 53568U 22101AT  23239.02853114  .00000283  00000-0  35894-4 0  9992,2 53568  53.2158 249.4423 0001294  91.6993 268.4147 15.08838806 56701,6917.884,95.438,540.644,538.854,0.0
53568.0,STARLINK-4583,PAYLOAD,2023-08-27 05:27:14,15.08841042,0.0001295,53.2158,248.5503,93.0156,267.0984,5.1904e-05,5.38e-06,0.0,0 STARLINK-4583,1 53568U 22101AT  23239.22724928  .00000538  00000-0  51904-4 0  9997,2 53568  53.2158 248.5503 0001295  93.0156 267.0984 15.08841042 57428,6917.877,95.437,540.638,538.846,0.0
53568.0,STARLINK-4583,PAYLOAD,2023-08-28 06:53:24,15.08843069,0.000129,53.2155,243.792,96.9358,263.1781,5.0403e-05,5.14e-06,0.0,0 STARLINK-4583,1 53568U 22101AT  23240.28708639  .00000514  00000-0  50403-4 0  9993,2 53568  53.2155 243.7920 0001290  96.9358 263.1781 15.08843069 56899,6917.871,95.437,540.628,538.844,0.0
53568.0,STARLINK-4583,PAYLOAD,2023-08-29 00:22:39,15.08836526,0.0001326,53.2158,240.5216,94.9642,265.1501,3.2438e-05,2.28e-06,0.0,0 STARLINK-4583,1 53568U 22101AT  23241.01573117  .00000228  00000-0  32438-4 0  9996,2 53568  53.2158 240.5216 0001326  94.9642 265.1501 15.08836526 57005,6917.891,95.438,540.673,538.839,0.0
53568.0,STARLINK-4583,PAYLOAD,2023-08-29 09:54:57,15.08838343,0.000132,53.2157,238.7381,89.3233,270.791,3.9491e-05,3.41e-06,0.0,0 STARLINK-4583,1 53568U 22101AT  23241.41317056  .00000341  00000-0  39491-4 0  9990,2 53568  53.2157 238.7381 0001320  89.3233 270.7910 15.08838343 57751,6917.885,95.438,540.664,538.837,0.0
53568.0,STARLINK-4583,PAYLOAD,2023-08-30 06:34:58,15.08840156,0.0001397,53.2161,234.8733,89.9887,270.1265,2.9743e-05,1.85e-06,0.0,0 STARLINK-4583,1 53568U 22101AT  23242.27429094  .00000185  00000-0  29743-4 0  9996,2 53568  53.2161 234.8733 0001397  89.9887 270.1265 15.08840156 57199,6917.88,95.438,540.711,538.778,0.0
